<?xml version="1.0" encoding="UTF-8"?>
<oem xmlns="urn:ccsds:schema:ndmxml" id="CCSDS_OEM_VERS" version="2.0">
	<header>
		<COMMENT>This file was produced by Fly4EO</COMMENT>
		<CREATION_DATE>2010-08-24T00:58:16.077</CREATION_DATE>
		<ORIGINATOR>PLACE_HOLDER_UNTIL_SPACECRAFT_OPERATOR_IS_KNOWN</ORIGINATOR>
	</header>
	<body>
		<segment>
			<metadata>
				<OBJECT_NAME>PLACE_HOLDER_UNTIL_SATELLITE_NAME_IS_KNOWN</OBJECT_NAME>
				<OBJECT_ID>2022-001A</OBJECT_ID>
				<CENTER_NAME>EARTH</CENTER_NAME>
				<REF_FRAME>EME2000</REF_FRAME>
				<TIME_SYSTEM>UTC</TIME_SYSTEM>
				<START_TIME>2010-08-25T00:00:00.000</START_TIME>
				<STOP_TIME>2010-08-27T00:00:00.000</STOP_TIME>
			</metadata>
			<data>
				<COMMENT>This file was produced by Fly4EO</COMMENT>
				<stateVector>
					<EPOCH>2010-08-25T11:40:00.000</EPOCH>
					<X>2884.66995455455250000000</X>
					<Y>-1663.02493977007130000000</Y>
					<Z>6196.24659495813100000000</Z>
					<X_DOT>4.35978729837204780000</X_DOT>
					<Y_DOT>-5.11164475445749120000</Y_DOT>
					<Z_DOT>-3.39385084097181530000</Z_DOT>
				</stateVector>
				<stateVector>
					<EPOCH>2010-08-25T11:40:30.000</EPOCH>
					<X>3013.96036647102800000000</X>
					<Y>-1815.49434619106090000000</Y>
					<Z>6091.25926439900650000000</Z>
					<X_DOT>4.25883453975042500000</X_DOT>
					<Y_DOT>-5.05211174849345480000</Y_DOT>
					<Z_DOT>-3.60470694308229820000</Z_DOT>
				</stateVector>
				<stateVector>
					<EPOCH>2010-08-25T11:41:00.000</EPOCH>
					<X>3140.15620986470590000000</X>
					<Y>-1966.09971799570690000000</Y>
					<Z>5980.00111401619420000000</Z>
					<X_DOT>4.15350022518980920000</X_DOT>
					<Y_DOT>-4.98738625242193660000</Y_DOT>
					<Z_DOT>-3.81186960307210530000</Z_DOT>
				</stateVector>
				<stateVector>
					<EPOCH>2010-08-25T11:41:30.000</EPOCH>
					<X>3263.12763516309770000000</X>
					<Y>-2114.68624961861450000000</Y>
					<Z>5862.58615877869030000000</Z>
					<X_DOT>4.04389157638454220000</X_DOT>
					<Y_DOT>-4.91753376018898970000</Y_DOT>
					<Z_DOT>-4.01512533573868780000</Z_DOT>
				</stateVector>
				<stateVector>
					<EPOCH>2010-08-25T11:42:00.000</EPOCH>
					<X>3382.74807620335470000000</X>
					<Y>-2261.10117954809270000000</Y>
					<Z>5739.13476065581740000000</Z>
					<X_DOT>3.93012024745878200000</X_DOT>
					<Y_DOT>-4.84262503530986340000</Y_DOT>
					<Z_DOT>-4.21426452515361750000</Z_DOT>
				</stateVector>
				<stateVector>
					<EPOCH>2010-08-25T11:42:30.000</EPOCH>
					<X>3498.89438163127810000000</X>
					<Y>-2405.19394732076900000000</Y>
					<Z>5609.77350973335070000000</Z>
					<X_DOT>3.81230222185515410000</X_DOT>
					<Y_DOT>-4.76273604025794130000</Y_DOT>
					<Z_DOT>-4.40908160939301560000</Z_DOT>
				</stateVector>
				<stateVector>
					<EPOCH>2010-08-25T11:43:00.000</EPOCH>
					<X>3611.44694348623120000000</X>
					<Y>-2546.81634869457180000000</Y>
					<Z>5474.63509982523830000000</Z>
					<X_DOT>3.69055773157135420000</X_DOT>
					<Y_DOT>-4.67794788839097550000</Y_DOT>
					<Z_DOT>-4.59937526853501750000</Z_DOT>
				</stateVector>
				<stateVector>
					<EPOCH>2010-08-25T11:43:30.000</EPOCH>
					<X>3720.28982346011800000000</X>
					<Y>-2685.82268960632380000000</Y>
					<Z>5333.85819809358870000000</Z>
					<X_DOT>3.56501117012355500000</X_DOT>
					<Y_DOT>-4.58834680354964860000</Y_DOT>
					<Z_DOT>-4.78494863699906330000</Z_DOT>
				</stateVector>
				<stateVector>
					<EPOCH>2010-08-25T11:44:00.000</EPOCH>
					<X>3825.31087616646940000000</X>
					<Y>-2822.06993875216220000000</Y>
					<Z>5187.58730783944070000000</Z>
					<X_DOT>3.43579098688622600000</X_DOT>
					<Y_DOT>-4.49402406934671110000</Y_DOT>
					<Z_DOT>-4.96560954730807320000</Z_DOT>
				</stateVector>
				<stateVector>
					<EPOCH>2010-08-25T11:44:30.000</EPOCH>
					<X>3926.40186893956930000000</X>
					<Y>-2955.41787829647140000000</Y>
					<Z>5035.97262369046710000000</Z>
					<X_DOT>3.30302955584364270000</X_DOT>
					<Y_DOT>-4.39507595040782120000</Y_DOT>
					<Z_DOT>-5.14117078738096470000</Z_DOT>
				</stateVector>
				<stateVector>
					<EPOCH>2010-08-25T11:45:00.000</EPOCH>
					<X>4023.45859723975220000000</X>
					<Y>-3085.72925167258060000000</Y>
					<Z>4879.16987928135680000000</Z>
					<X_DOT>3.16686301700101720000</X_DOT>
					<Y_DOT>-4.29160357890698660000</Y_DOT>
					<Z_DOT>-5.31145033885341530000</Z_DOT>
				</stateVector>
				<stateVector>
					<EPOCH>2010-08-25T11:45:30.000</EPOCH>
					<X>4116.38099513018550000000</X>
					<Y>-3212.86990765385780000000</Y>
					<Z>4717.34018836551510000000</Z>
					<X_DOT>3.02743110993804270000</X_DOT>
					<Y_DOT>-4.18371282333109300000</Y_DOT>
					<Z_DOT>-5.47627157479693590000</Z_DOT>
				</stateVector>
				<stateVector>
					<EPOCH>2010-08-25T11:46:00.000</EPOCH>
					<X>4205.07324089219760000000</X>
					<Y>-3336.70894053469240000000</Y>
					<Z>4550.64988060854010000000</Z>
					<X_DOT>2.88487701873303100000</X_DOT>
					<Y_DOT>-4.07151416425653870000</Y_DOT>
					<Z_DOT>-5.63546341903340500000</Z_DOT>
				</stateVector>
				<stateVector>
					<EPOCH>2010-08-25T11:46:30.000</EPOCH>
					<X>4289.44385828044510000000</X>
					<Y>-3457.11882691305530000000</Y>
					<Z>4379.27033289568860000000</Z>
					<X_DOT>2.73934723635942050000</X_DOT>
					<Y_DOT>-3.95512259320808420000</Y_DOT>
					<Z_DOT>-5.78886049107914410000</Z_DOT>
				</stateVector>
				<stateVector>
					<EPOCH>2010-08-25T11:47:00.000</EPOCH>
					<X>4369.40581392740390000000</X>
					<Y>-3573.97555976709510000000</Y>
					<Z>4203.37779613511160000000</Z>
					<X_DOT>2.59099144137710930000</X_DOT>
					<Y_DOT>-3.83465753118080070000</Y_DOT>
					<Z_DOT>-5.93630326531538980000</Z_DOT>
				</stateVector>
				<stateVector>
					<EPOCH>2010-08-25T11:47:30.000</EPOCH>
					<X>4444.87661103558640000000</X>
					<Y>-3687.15878014794090000000</Y>
					<Z>4023.15321687156800000000</Z>
					<X_DOT>2.43996237088000800000</X_DOT>
					<Y_DOT>-3.71024274719506280000</Y_DOT>
					<Z_DOT>-6.07763825840950740000</Z_DOT>
				</stateVector>
				<stateVector>
					<EPOCH>2010-08-25T11:48:00.000</EPOCH>
					<X>4515.77837902164900000000</X>
					<Y>-3796.55190614743650000000</Y>
					<Z>3838.78205293020890000000</Z>
					<X_DOT>2.28641567624666300000</X_DOT>
					<Y_DOT>-3.58200625519870510000</Y_DOT>
					<Z_DOT>-6.21271823679861870000</Z_DOT>
				</stateVector>
				<stateVector>
					<EPOCH>2010-08-25T11:48:30.000</EPOCH>
					<X>4582.03795852513940000000</X>
					<Y>-3902.04225830870340000000</Y>
					<Z>3650.45408281235310000000</Z>
					<X_DOT>2.13050975886836190000</X_DOT>
					<Y_DOT>-3.45008017987048810000</Y_DOT>
					<Z_DOT>-6.34140242164809550000</Z_DOT>
				</stateVector>
				<stateVector>
					<EPOCH>2010-08-25T11:49:00.000</EPOCH>
					<X>4643.58698127541630000000</X>
					<Y>-4003.52118061952390000000</Y>
					<Z>3458.36320925688640000000</Z>
					<X_DOT>1.97240559347928430000</X_DOT>
					<Y_DOT>-3.31460059877964940000</Y_DOT>
					<Z_DOT>-6.46355667026370460000</Z_DOT>
				</stateVector>
				<stateVector>
					<EPOCH>2010-08-25T11:49:30.000</EPOCH>
					<X>4700.36194461622020000000</X>
					<Y>-4100.88415663178330000000</Y>
					<Z>3262.70725782196910000000</Z>
					<X_DOT>1.81226655044178360000</X_DOT>
					<Y_DOT>-3.17570737840049280000</Y_DOT>
					<Z_DOT>-6.57905362687421040000</Z_DOT>
				</stateVector>
				<stateVector>
					<EPOCH>2010-08-25T11:50:00.000</EPOCH>
					<X>4752.30428078696790000000</X>
					<Y>-4194.03092077385550000000</Y>
					<Z>3063.68777131313750000000</Z>
					<X_DOT>1.65025822456939150000</X_DOT>
					<Y_DOT>-3.03354401947324970000</Y_DOT>
					<Z_DOT>-6.68777285117401730000</Z_DOT>
				</stateVector>
				<stateVector>
					<EPOCH>2010-08-25T11:50:30.000</EPOCH>
					<X>4799.36042117929080000000</X>
					<Y>-4282.86556524039860000000</Y>
					<Z>2861.50980048901920000000</Z>
					<X_DOT>1.48654827085511010000</X_DOT>
					<Y_DOT>-2.88825751663470020000</Y_DOT>
					<Z_DOT>-6.78960094057292630000</Z_DOT>
				</stateVector>
				<stateVector>
					<EPOCH>2010-08-25T11:51:00.000</EPOCH>
					<X>4841.48185570634810000000</X>
					<Y>-4367.29664281953410000000</Y>
					<Z>2656.38169101975840000000</Z>
					<X_DOT>1.32130624160632240000</X_DOT>
					<Y_DOT>-2.73999822614365750000</Y_DOT>
					<Z_DOT>-6.88443165942566090000</Z_DOT>
				</stateVector>
				<stateVector>
					<EPOCH>2010-08-25T11:51:30.000</EPOCH>
					<X>4878.62518720884600000000</X>
					<Y>-4447.23726572767460000000</Y>
					<Z>2448.51486639453290000000</Z>
					<X_DOT>1.15470341727682670000</X_DOT>
					<Y_DOT>-2.58891973014477060000</Y_DOT>
					<Z_DOT>-6.97216607968703350000</Z_DOT>
				</stateVector>
				<stateVector>
					<EPOCH>2010-08-25T11:52:00.000</EPOCH>
					<X>4910.75218060726370000000</X>
					<Y>-4522.60520018909940000000</Y>
					<Z>2238.12360648904310000000</Z>
					<X_DOT>0.98691262436657012000</X_DOT>
					<Y_DOT>-2.43517868725749010000</Y_DOT>
					<Z_DOT>-7.05271272823879960000</Z_DOT>
				</stateVector>
				<stateVector>
					<EPOCH>2010-08-25T11:52:30.000</EPOCH>
					<X>4937.82980634828710000000</X>
					<Y>-4593.32295625593540000000</Y>
					<Z>2025.42482174263710000000</Z>
					<X_DOT>0.81810803705466462000</X_DOT>
					<Y_DOT>-2.27893466444156310000</Y_DOT>
					<Z_DOT>-7.12598773015474850000</Z_DOT>
				</stateVector>
				<stateVector>
					<EPOCH>2010-08-25T11:53:00.000</EPOCH>
					<X>4959.83027767014570000000</X>
					<Y>-4659.31787230570080000000</Y>
					<Z>1810.63782325569990000000</Z>
					<X_DOT>0.64846496416291322000</X_DOT>
					<Y_DOT>-2.12034995075442720000</Y_DOT>
					<Z_DOT>-7.19191493544381100000</Z_DOT>
				</stateVector>
				<stateVector>
					<EPOCH>2010-08-25T11:53:30.000</EPOCH>
					<X>4976.73108134085580000000</X>
					<Y>-4720.52219373926250000000</Y>
					<Z>1593.98408946173390000000</Z>
					<X_DOT>0.47815962874874701000</X_DOT>
					<Y_DOT>-1.95958935815061470000</Y_DOT>
					<Z_DOT>-7.25042601947605900000</Z_DOT>
				</stateVector>
				
			</data>
		</segment>
	</body>
</oem>